{"type": "FeatureCollection", "features": [ {"type": "Feature", "properties": {"norad_id": 34547, "name": "COSMOS 2251 DEB", "group": "cosmos-2251-debris", "lat": -21.513093493173866, "lon": -80.7282883970678, "alt_km": 647.9134457695209, "timestamp": "2025-12-16T19:34:24.663092+00:00", "meta": {"OBJECT_NAME": "COSMOS 2251 DEB", "OBJECT_ID": "1993-036UH", "EPOCH": "2025-12-15T08:24:52.754976", "MEAN_MOTION": 14.72411995, "ECCENTRICITY": 0.0016993, "INCLINATION": 74.031, "RA_OF_ASC_NODE": 95.6416, "ARG_OF_PERICENTER": 175.6952, "MEAN_ANOMALY": 184.437, "EPHEMERIS_TYPE": 0, "CLASSIFICATION_TYPE": "U", "NORAD_CAT_ID": 34547, "ELEMENT_SET_NO": 999, "REV_AT_EPOCH": 88560, "BSTAR": 0.0012230305, "MEAN_MOTION_DOT": 7.745e-05, "MEAN_MOTION_DDOT": 0}, "tle": {"line1": "1 34547U 93036UH  25349.35061059  .00007745  00000+0  12230-2 0  9998", "line2": "2 34547  74.0310  95.6416 0016993 175.6952 184.4370 14.72411995885601"}}, "geometry": {"type": "Point", "coordinates": [-80.7282883970678, -21.513093493173866]}}, {"type": "Feature", "properties": {"norad_id": 34553, "name": "COSMOS 2251 DEB", "group": "cosmos-2251-debris", "lat": -59.65405271629153, "lon": 33.43478006309696, "alt_km": 694.2092641375712, "timestamp": "2025-12-16T19:34:24.663102+00:00", "meta": {"OBJECT_NAME": "COSMOS 2251 DEB", "OBJECT_ID": "1993-036UP", "EPOCH": "2025-12-15T23:16:06.191904", "MEAN_MOTION": 14.57754691, "ECCENTRICITY": 0.00192053, "INCLINATION": 74.0243, "RA_OF_ASC_NODE": 185.7465, "ARG_OF_PERICENTER": 262.8549, "MEAN_ANOMALY": 222.8388, "EPHEMERIS_TYPE": 0, "CLASSIFICATION_TYPE": "U", "NORAD_CAT_ID": 34553, "ELEMENT_SET_NO": 999, "REV_AT_EPOCH": 88143, "BSTAR": 0.00072728183, "MEAN_MOTION_DOT": 3.304e-05, "MEAN_MOTION_DDOT": 0}, "tle": {"line1": "1 34553U 93036UP  25349.96951611  .00003304  00000+0  72728-3 0  9990", "line2": "2 34553  74.0243 185.7465 0019205 262.8549 222.8388 14.57754691881437"}}, "geometry": {"type": "Point", "coordinates": [33.43478006309696, -59.65405271629153]}}, {"type": "Feature", "properties": {"norad_id": 34554, "name": "COSMOS 2251 DEB", "group": "cosmos-2251-debris", "lat": 56.10912825187094, "lon": -43.29600030797929, "alt_km": 753.0109259629844, "timestamp": "2025-12-16T19:34:24.663112+00:00", "meta": {"OBJECT_NAME": "COSMOS 2251 DEB", "OBJECT_ID": "1993-036UQ", "EPOCH": "2025-12-15T21:51:25.337088", "MEAN_MOTION": 14.37945448, "ECCENTRICITY": 0.00231562, "INCLINATION": 74.0392, "RA_OF_ASC_NODE": 293.1527, "ARG_OF_PERICENTER": 354.8861, "MEAN_ANOMALY": 62.4447, "EPHEMERIS_TYPE": 0, "CLASSIFICATION_TYPE": "U", "NORAD_CAT_ID": 34554, "ELEMENT_SET_NO": 999, "REV_AT_EPOCH": 87801, "BSTAR": 0.00033315798, "MEAN_MOTION_DOT": 9.83e-06, "MEAN_MOTION_DDOT": 0}, "tle": {"line1": "1 34554U 93036UQ  25349.91070992  .00000983  00000+0  33316-3 0  9990", "line2": "2 34554  74.0392 293.1527 0023156 354.8861  62.4447 14.37945448878019"}}, "geometry": {"type": "Point", "coordinates": [-43.29600030797929, 56.10912825187094]}}, {"type": "Feature", "properties": {"norad_id": 34556, "name": "COSMOS 2251 DEB", "group": "cosmos-2251-debris", "lat": 72.71267344372816, "lon": -176.07469246850684, "alt_km": 628.8060811143359, "timestamp": "2025-12-16T19:34:24.663122+00:00", "meta": {"OBJECT_NAME": "COSMOS 2251 DEB", "OBJECT_ID": "1993-036US", "EPOCH": "2025-12-15T19:30:33.217344", "MEAN_MOTION": 14.77908385, "ECCENTRICITY": 0.00073808, "INCLINATION": 74.0151, "RA_OF_ASC_NODE": 118.8149, "ARG_OF_PERICENTER": 178.752, "MEAN_ANOMALY": 332.1625, "EPHEMERIS_TYPE": 0, "CLASSIFICATION_TYPE": "U", "NORAD_CAT_ID": 34556, "ELEMENT_SET_NO": 999, "REV_AT_EPOCH": 88374, "BSTAR": 0.0015348237, "MEAN_MOTION_DOT": 0.00011042, "MEAN_MOTION_DDOT": 0}, "tle": {"line1": "1 34556U 93036US  25349.81288446  .00011042  00000+0  15348-2 0  9998", "line2": "2 34556  74.0151 118.8149 0007380 178.7520 332.1625 14.77908385883747"}}, "geometry": {"type": "Point", "coordinates": [-176.07469246850684, 72.71267344372816]}}, {"type": "Feature", "properties": {"norad_id": 34560, "name": "COSMOS 2251 DEB", "group": "cosmos-2251-debris", "lat": -67.3794950832319, "lon": -2.340235047086267, "alt_km": 652.8228610670221, "timestamp": "2025-12-16T19:34:24.663133+00:00", "meta": {"OBJECT_NAME": "COSMOS 2251 DEB", "OBJECT_ID": "1993-036UW", "EPOCH": "2025-12-15T11:43:43.465728", "MEAN_MOTION": 14.72218011, "ECCENTRICITY": 0.00144602, "INCLINATION": 74.0153, "RA_OF_ASC_NODE": 136.7768, "ARG_OF_PERICENTER": 218.4433, "MEAN_ANOMALY": 205.7024, "EPHEMERIS_TYPE": 0, "CLASSIFICATION_TYPE": "U", "NORAD_CAT_ID": 34560, "ELEMENT_SET_NO": 999, "REV_AT_EPOCH": 88292, "BSTAR": 0.0014340405, "MEAN_MOTION_DOT": 9.042e-05, "MEAN_MOTION_DDOT": 0}, "tle": {"line1": "1 34560U 93036UW  25349.48869752  .00009042  00000+0  14340-2 0  9999", "line2": "2 34560  74.0153 136.7768 0014460 218.4433 205.7024 14.72218011882924"}}, "geometry": {"type": "Point", "coordinates": [-2.340235047086267, -67.3794950832319]}}, {"type": "Feature", "properties": {"norad_id": 34563, "name": "COSMOS 2251 DEB", "group": "cosmos-2251-debris", "lat": 2.1505633985510904, "lon": -163.28480478880223, "alt_km": 736.4096652759727, "timestamp": "2025-12-16T19:34:24.663143+00:00", "meta": {"OBJECT_NAME": "COSMOS 2251 DEB", "OBJECT_ID": "1993-036UZ", "EPOCH": "2025-12-15T20:23:57.119424", "MEAN_MOTION": 14.46520513, "ECCENTRICITY": 0.0013881, "INCLINATION": 74.0378, "RA_OF_ASC_NODE": 197.9015, "ARG_OF_PERICENTER": 291.7364, "MEAN_ANOMALY": 84.1833, "EPHEMERIS_TYPE": 0, "CLASSIFICATION_TYPE": "U", "NORAD_CAT_ID": 34563, "ELEMENT_SET_NO": 999, "REV_AT_EPOCH": 88242, "BSTAR": 0.0003416442, "MEAN_MOTION_DOT": 1.205e-05, "MEAN_MOTION_DDOT": 0}, "tle": {"line1": "1 34563U 93036UZ  25349.84996666  .00001205  00000+0  34164-3 0  9997", "line2": "2 34563  74.0378 197.9015 0013881 291.7364  84.1833 14.46520513882429"}}, "geometry": {"type": "Point", "coordinates": [-163.28480478880223, 2.1505633985510904]}}, {"type": "Feature", "properties": {"norad_id": 34564, "name": "COSMOS 2251 DEB", "group": "cosmos-2251-debris", "lat": 52.7247402531525, "lon": -107.42998779990072, "alt_km": 749.0279713652826, "timestamp": "2025-12-16T19:34:24.663153+00:00", "meta": {"OBJECT_NAME": "COSMOS 2251 DEB", "OBJECT_ID": "1993-036VA", "EPOCH": "2025-12-15T18:36:30.683232", "MEAN_MOTION": 14.40695707, "ECCENTRICITY": 0.00191407, "INCLINATION": 74.0319, "RA_OF_ASC_NODE": 232.3956, "ARG_OF_PERICENTER": 335.905, "MEAN_ANOMALY": 86.9329, "EPHEMERIS_TYPE": 0, "CLASSIFICATION_TYPE": "U", "NORAD_CAT_ID": 34564, "ELEMENT_SET_NO": 999, "REV_AT_EPOCH": 88050, "BSTAR": 0.00024727161, "MEAN_MOTION_DOT": 7.65e-06, "MEAN_MOTION_DDOT": 0}, "tle": {"line1": "1 34564U 93036VA  25349.77535513  .00000765  00000+0  24727-3 0  9994", "line2": "2 34564  74.0319 232.3956 0019140 335.9050  86.9329 14.40695707880509"}}, "geometry": {"type": "Point", "coordinates": [-107.42998779990072, 52.7247402531525]}}, {"type": "Feature", "properties": {"norad_id": 34567, "name": "COSMOS 2251 DEB", "group": "cosmos-2251-debris", "lat": -35.613524291682175, "lon": -18.726792701167543, "alt_km": 764.4845938628778, "timestamp": "2025-12-16T19:34:24.663163+00:00", "meta": {"OBJECT_NAME": "COSMOS 2251 DEB", "OBJECT_ID": "1993-036VD", "EPOCH": "2025-12-15T21:11:22.200576", "MEAN_MOTION": 14.24020047, "ECCENTRICITY": 0.00743597, "INCLINATION": 74.0404, "RA_OF_ASC_NODE": 151.1232, "ARG_OF_PERICENTER": 224.6985, "MEAN_ANOMALY": 253.173, "EPHEMERIS_TYPE": 0, "CLASSIFICATION_TYPE": "U", "NORAD_CAT_ID": 34567, "ELEMENT_SET_NO": 999, "REV_AT_EPOCH": 87169, "BSTAR": 0.00023108299, "MEAN_MOTION_DOT": 5.2e-06, "MEAN_MOTION_DDOT": 0}, "tle": {"line1": "1 34567U 93036VD  25349.88289584  .00000520  00000+0  23108-3 0  9994", "line2": "2 34567  74.0404 151.1232 0074359 224.6985 253.1730 14.24020047871691"}}, "geometry": {"type": "Point", "coordinates": [-18.726792701167543, -35.613524291682175]}}, {"type": "Feature", "properties": {"norad_id": 34569, "name": "COSMOS 2251 DEB", "group": "cosmos-2251-debris", "lat": 33.268040738170775, "lon": -158.37489084348528, "alt_km": 698.2963165844731, "timestamp": "2025-12-16T19:34:24.663173+00:00", "meta": {"OBJECT_NAME": "COSMOS 2251 DEB", "OBJECT_ID": "1993-036VF", "EPOCH": "2025-12-15T13:12:52.587360", "MEAN_MOTION": 14.24759676, "ECCENTRICITY": 0.01574326, "INCLINATION": 73.9894, "RA_OF_ASC_NODE": 193.0536, "ARG_OF_PERICENTER": 20.8073, "MEAN_ANOMALY": 8.0158, "EPHEMERIS_TYPE": 0, "CLASSIFICATION_TYPE": "U", "NORAD_CAT_ID": 34569, "ELEMENT_SET_NO": 999, "REV_AT_EPOCH": 87008, "BSTAR": 0.00047618814, "MEAN_MOTION_DOT": 1.236e-05, "MEAN_MOTION_DDOT": 0}, "tle": {"line1": "1 34569U 93036VF  25349.55060865  .00001236  00000+0  47619-3 0  9997", "line2": "2 34569  73.9894 193.0536 0157432  20.8073   8.0158 14.24759676870084"}}, "geometry": {"type": "Point", "coordinates": [-158.37489084348528, 33.268040738170775]}}, {"type": "Feature", "properties": {"norad_id": 34570, "name": "COSMOS 2251 DEB", "group": "cosmos-2251-debris", "lat": -40.22673743791924, "lon": -162.89141532248763, "alt_km": 996.94249598436, "timestamp": "2025-12-16T19:34:24.663184+00:00", "meta": {"OBJECT_NAME": "COSMOS 2251 DEB", "OBJECT_ID": "1993-036VG", "EPOCH": "2025-12-15T01:35:48.543648", "MEAN_MOTION": 13.99823242, "ECCENTRICITY": 0.01902617, "INCLINATION": 73.9569, "RA_OF_ASC_NODE": 214.2362, "ARG_OF_PERICENTER": 96.2089, "MEAN_ANOMALY": 52.6208, "EPHEMERIS_TYPE": 0, "CLASSIFICATION_TYPE": "U", "NORAD_CAT_ID": 34570, "ELEMENT_SET_NO": 999, "REV_AT_EPOCH": 85633, "BSTAR": 0.00050503358, "MEAN_MOTION_DOT": 8.43e-06, "MEAN_MOTION_DDOT": 0}, "tle": {"line1": "1 34570U 93036VG  25349.06653407  .00000843  00000+0  50503-3 0  9994", "line2": "2 34570  73.9569 214.2362 0190261  96.2089  52.6208 13.99823242856334"}}, "geometry": {"type": "Point", "coordinates": [-162.89141532248763, -40.22673743791924]}}]}